#dP2019  3 13  0  0  0.00000000      96 __u+U ITR00 FIT  IAC
## 2044 259200.00000000   900.00000000 58555 0.0000000000000
+   93   C01C02C03C05C06C07C08C09C10C11C12C13C14C16E01E02E03
+        E04E05E07E08E09E11E12E13E14E15E18E19E21E24E25E26E27
+        E30E31E33E36G01G02G03G04G05G06G07G08G09G10G11G12G13
+        G14G15G16G17G18G19G20G21G22G23G24G25G26G27G28G29G30
+        G31G32R01R02R03R04R05R07R08R09R10R11R13R14R15R16R17
+        R18R19R20R21R22R23R24R26  0  0  0  0  0  0  0  0  0
++         0  0 12 11  8  8  9  8  8  8  8  8  8  8  5  6  6
++         5  6  5  5  5  6  5  5  5  6  5  5  5  5  5  5  5
++         6  5  6  6  3  4  4  5  4  3  4  4  4  4  4  3  3
++         4  3  4  3  4  3  4  4  4  4  4  4  4  4  4  4  4
++         3  3  5  6  5  5  5  5  5  6  5  6  5  6  5  5  6
++         6  6  5  5  5  5  6  9  0  0  0  0  0  0  0  0  0
%c M  cc GPS ccc cccc cccc cccc cccc ccccc ccccc ccccc ccccc
%c cc cc ccc ccc cccc cccc cccc cccc ccccc ccccc ccccc ccccc
%f  0.0000000  0.000000000  0.00000000000  0.000000000000000
%f  0.0000000  0.000000000  0.00000000000  0.000000000000000
%i    0    0    0    0      0      0      0      0         0
%i    0    0    0    0      0      0      0      0         0
/*                                                          
/*   RSA / INFORMATION & ANALYSIS CENTER (IAC) OF MCC       
/*   ULTRA-RAPID DETERMINATION                              
/* PCV:IGS14_2038 OL/AL:FES2004  NONE     YN ORB:CoN CLK:CoN
*  2019 03 13  5 15  0.00000000
PC01 -32314.930965  27098.133078    159.049898    324.194658
PC02   4452.791521  41888.442125  -1143.540411   -373.943851
PC03 -14759.092529  39462.662110   -285.414632    -67.687190
PC05  21933.635639  35974.721922  -1212.403096   -113.308205
PC06 -19245.158283  37281.336561    826.027616    524.032230
PC07  -6550.358605  29938.509821  29254.491314    100.455988
PC08 -22015.328179  19564.325559 -30191.187324    127.874021
PC09 -10310.143620  38061.861865  14641.097511    601.250654
PC10   4571.385890  35761.638874  22298.538601   -569.338445
PC11 -15968.227508  -6335.846477  22062.682861    -48.271434
PC12  10575.948264 -20701.167894  15450.334895    488.136746
PC13  -6278.149018  23403.779593 -34481.700801   -590.332133
PC14  -9570.025747 -24604.620292  -9054.422094    768.034286
PC16 -17071.745431  38304.561266   3404.199881   -357.764071
PE01 -23778.024245 -13631.127046  11178.648767   -560.979636
PE02  23777.537584  13577.566456 -11234.152500     51.256502
PE03  16084.461337   6051.492486  24102.247548   -143.285355
PE04 -17573.752536  15590.484757 -18001.308487   -239.243569
PE05   5158.851263  24286.839468  16117.146980     92.585207
PE07   8747.603221 -28245.987842   1271.752685   -148.129842
PE08  17324.758362 -15836.668486  18031.290514   6389.815422
PE09  -8486.278137  28337.402977  -1246.146764   6501.848879
PE11 -12032.416212  17508.723280 -20598.024892   5716.029414
PE12 -27252.680788  10569.351343  -4572.943466   6360.890294
PE13  12170.054651 -17502.707257  20552.820717    384.143609
PE14 -19099.261339  16579.896440   5046.942450   6432.134438
PE15  27078.361280 -10906.783337   4939.700149    917.350665
PE18  25007.421436  -8523.200372 -16346.317124   -589.016044
PE19 -15237.413940  -8167.893192 -24023.158492     -7.775580
PE21 -15983.253838 -23600.767984  -7993.446366   -523.803714
PE24   -954.880421  19794.079511  21965.102880   6188.170445
PE25  15953.275778  23604.305341   8029.991705   1867.127365
PE26  -9791.996127 -14147.159741  24096.708350   4804.636793
PE27   1234.278901 -19536.507079 -22206.894578    511.632772
PE30  17504.564312  -4336.877931 -23482.387360   5037.234744
PE31 -17706.488356   4018.850631  23378.541509    884.498074
PE33 -26180.434956  -2119.363801  13649.260684    847.955285
PE36   9936.437733  13864.146034 -24180.298801    737.162633
PG01  15567.621984  13436.714602 -17156.227974   -179.763019
PG02   8460.867040 -14609.447616  21073.879038   -162.155124
PG03  12844.226702  23035.761958   3429.559325    186.232307
PG04  18671.500988  -2737.156848  18703.933371    132.414967
PG05    620.329872 -22291.963083  14152.745196      1.171935
PG06  20280.400049  -8245.381857  15105.831417    256.376289
PG07  25222.438595   7176.141104   5816.531761     15.951798
PG08  -1861.820284  21242.825978 -15662.736671   -135.962741
PG09  16170.718222   2777.024961  20844.057764    446.001599
PG10 -15173.410955   2858.836080 -21570.392538     98.407822
PG11  10048.441951  13742.202971 -20889.098172   -645.938820
PG12 -10346.818532 -24479.398668   1909.208742    260.598580
PG13  10545.458135 -21992.837000 -10584.088733    -71.904923
PG14 -18852.198314  18135.036599  -3679.653807    -88.540260
PG15  -2369.549957 -20524.623919 -16732.450139   -323.799675
PG16  -1148.426194  22874.324656  12885.173469    -25.034931
PG17  20071.695459 -11999.890765 -12098.177857     22.629457
PG18   5178.698003  15538.047213 -21416.512430     34.318303
PG19  19711.015771 -17294.498343  -4829.712748   -342.901165
PG20 -19043.012941  -6418.179358 -17542.599682    523.042461
PG21 -26151.339913  -3510.225097   3138.658388   -233.534220
PG22   9463.364063  24458.947221  -4151.748745   -663.153369
PG23   9130.214917  13658.404764  21120.851217   -194.224365
PG24 -11820.164835 -14611.410173 -19042.104795    -63.289842
PG25 -16506.458779 -17001.646000  12053.754470   -732.366377
PG26  -7996.265423  15838.846327  19692.994400    147.778148
PG27 -10752.681396  23071.847875  -7111.724565    -85.076439
PG28  14877.406140   -518.456767 -21379.681658    766.215436
PG29 -12124.214554  -8316.137421  22093.437883    250.598137
PG30  26011.837772   -359.025070  -5794.820640    -67.548992
PG31 -19860.412714   8457.503001  15763.724374     52.542855
PG32 -19437.251561  14809.320321 -10226.030813   -183.774992
PR01  11059.065765  -5385.193037  22346.192580     40.744973
PR02   6026.730910 -22912.005096   9561.516229    358.511341
PR03  -2298.991834 -24134.689798  -7962.819643     -7.718514
PR04  -9407.570692 -10779.352802 -21105.666169    298.405028
PR05 -10717.749984   7801.250462 -21778.267075     23.942065
PR07   2576.629849  23883.878689   8559.091813    -59.747682
PR08   9231.989068  11493.156415  20866.576081     18.673687
PR09  -2347.025325  11648.792449  22587.535163     58.820674
PR10  12376.099429  16734.162039  14775.252936     44.796150
PR11  21794.367068  13014.622831  -2711.191701    -59.514572
PR13   3563.271918 -10597.069609 -22950.014957    -21.149155
PR14 -12408.547329 -16746.411781 -14694.277802     36.850315
PR15 -21616.841889 -13421.390544   1877.990927    100.590833
PR16 -18596.958332  -2036.380515  17374.342381     10.787458
PR17    366.966104 -11765.288964  22640.228504    211.650152
PR18 -15584.275281  -2496.482292  20035.945059     36.164859
PR19 -23442.822667   7652.721198   6517.372900    -60.578652
PR20 -17150.967291  14108.614576 -12486.271908   -371.591639
PR21    152.424922  11473.185054 -22777.193327    -36.229554
PR22  17580.767616    759.977754 -18514.804431     -9.123120
PR23  23187.866504 -10540.751293  -1463.298334    214.985961
PR24  15743.052571 -14569.627524  13803.017094   -178.144632
PR26 -18462.500082  14217.276211 -10382.696856      0.975680
EOF
